{
  "type": "FeatureCollection",
  "features": [
    {
      "type": "Feature",
      "properties": {
        "norad_id": 37421,
        "name": "FENGYUN 1C DEB",
        "group": "fengyun-1c-debris",
        "lat": 60.25397461723539,
        "lon": -77.7203577115809,
        "alt_km": 842.1401140150483,
        "timestamp": "2025-12-08T23:34:04.258766+00:00",
        "meta_object_name": "FENGYUN 1C DEB",
        "meta_object_id": "1999-025EGP",
        "meta_epoch": "2025-12-08T14:18:59.473152",
        "meta_mean_motion": 13.40522268,
        "meta_eccentricity": 0.04088785,
        "meta_inclination": 98.8881,
        "meta_ra_of_asc_node": 297.8318,
        "meta_arg_of_pericenter": 95.9007,
        "meta_mean_anomaly": 268.8872,
        "meta_ephemeris_type": 0,
        "meta_classification_type": "U",
        "meta_norad_cat_id": 37421,
        "meta_element_set_no": 999,
        "meta_rev_at_epoch": 60890,
        "meta_bstar": 0.00097469833,
        "meta_mean_motion_dot": 8.4e-06,
        "meta_mean_motion_ddot": 0,
        "tle_line1": "1 37421U 99025EGP 25342.59652168  .00000840  00000+0  97470-3 0  9991",
        "tle_line2": "2 37421  98.8881 297.8318 0408878  95.9007 268.8872 13.40522268608901"
      },
      "geometry": {
        "type": "Point",
        "coordinates": [
          -77.7203577115809,
          60.25397461723539
        ]
      }
    },
    {
      "type": "Feature",
      "properties": {
        "norad_id": 37423,
        "name": "FENGYUN 1C DEB",
        "group": "fengyun-1c-debris",
        "lat": -71.30559038894273,
        "lon": 60.528366057471516,
        "alt_km": 891.0536673406004,
        "timestamp": "2025-12-08T23:34:04.258777+00:00",
        "meta_object_name": "FENGYUN 1C DEB",
        "meta_object_id": "1999-025EGR",
        "meta_epoch": "2025-12-02T09:15:11.081088",
        "meta_mean_motion": 14.07508063,
        "meta_eccentricity": 0.00491371,
        "meta_inclination": 98.7874,
        "meta_ra_of_asc_node": 26.9108,
        "meta_arg_of_pericenter": 188.2995,
        "meta_mean_anomaly": 171.7367,
        "meta_ephemeris_type": 0,
        "meta_classification_type": "U",
        "meta_norad_cat_id": 37423,
        "meta_element_set_no": 999,
        "meta_rev_at_epoch": 63464,
        "meta_bstar": 0.00087659335,
        "meta_mean_motion_dot": 1.451e-05,
        "meta_mean_motion_ddot": 0,
        "tle_line1": "1 37423U 99025EGR 25336.38554492  .00001451  00000+0  87659-3 0  9991",
        "tle_line2": "2 37423  98.7874  26.9108 0049137 188.2995 171.7367 14.07508063634645"
      },
      "geometry": {
        "type": "Point",
        "coordinates": [
          60.528366057471516,
          -71.30559038894273
        ]
      }
    },
    {
      "type": "Feature",
      "properties": {
        "norad_id": 37424,
        "name": "FENGYUN 1C DEB",
        "group": "fengyun-1c-debris",
        "lat": 22.53338903163521,
        "lon": 109.17196194623959,
        "alt_km": 825.6302775970253,
        "timestamp": "2025-12-08T23:34:04.258793+00:00",
        "meta_object_name": "FENGYUN 1C DEB",
        "meta_object_id": "1999-025EGS",
        "meta_epoch": "2025-11-26T15:03:16.540128",
        "meta_mean_motion": 14.17748147,
        "meta_eccentricity": 0.02143557,
        "meta_inclination": 97.1976,
        "meta_ra_of_asc_node": 102.1461,
        "meta_arg_of_pericenter": 331.0381,
        "meta_mean_anomaly": 27.9039,
        "meta_ephemeris_type": 0,
        "meta_classification_type": "U",
        "meta_norad_cat_id": 37424,
        "meta_element_set_no": 999,
        "meta_rev_at_epoch": 68345,
        "meta_bstar": 0.00085242664,
        "meta_mean_motion_dot": 2.145e-05,
        "meta_mean_motion_ddot": 0,
        "tle_line1": "1 37424U 99025EGS 25330.62727477  .00002145  00000+0  85243-3 0  9996",
        "tle_line2": "2 37424  97.1976 102.1461 0214355 331.0381  27.9039 14.17748147683455"
      },
      "geometry": {
        "type": "Point",
        "coordinates": [
          109.17196194623959,
          22.53338903163521
        ]
      }
    },
    {
      "type": "Feature",
      "properties": {
        "norad_id": 37427,
        "name": "FENGYUN 1C DEB",
        "group": "fengyun-1c-debris",
        "lat": 59.4153038640714,
        "lon": 109.57721884938438,
        "alt_km": 610.2114971013207,
        "timestamp": "2025-12-08T23:34:04.258803+00:00",
        "meta_object_name": "FENGYUN 1C DEB",
        "meta_object_id": "1999-025EGV",
        "meta_epoch": "2025-11-25T03:26:10.747680",
        "meta_mean_motion": 14.97768919,
        "meta_eccentricity": 0.01887185,
        "meta_inclination": 98.6232,
        "meta_ra_of_asc_node": 109.1733,
        "meta_arg_of_pericenter": 355.7363,
        "meta_mean_anomaly": 4.2239,
        "meta_ephemeris_type": 0,
        "meta_classification_type": "U",
        "meta_norad_cat_id": 37427,
        "meta_element_set_no": 999,
        "meta_rev_at_epoch": 60059,
        "meta_bstar": 0.00046451943,
        "meta_mean_motion_dot": 7.8e-05,
        "meta_mean_motion_ddot": 0,
        "tle_line1": "1 37427U 99025EGV 25329.14317995  .00007800  00000+0  46452-3 0  9996",
        "tle_line2": "2 37427  98.6232 109.1733 0188718 355.7363   4.2239 14.97768919600595"
      },
      "geometry": {
        "type": "Point",
        "coordinates": [
          109.57721884938438,
          59.4153038640714
        ]
      }
    },
    {
      "type": "Feature",
      "properties": {
        "norad_id": 37428,
        "name": "FENGYUN 1C DEB",
        "group": "fengyun-1c-debris",
        "lat": 31.06729325348134,
        "lon": -158.65374155110356,
        "alt_km": 766.5397098891162,
        "timestamp": "2025-12-08T23:34:04.258813+00:00",
        "meta_object_name": "FENGYUN 1C DEB",
        "meta_object_id": "1999-025EGW",
        "meta_epoch": "2025-12-08T08:21:22.529088",
        "meta_mean_motion": 14.34566274,
        "meta_eccentricity": 0.00566929,
        "meta_inclination": 97.7218,
        "meta_ra_of_asc_node": 205.4682,
        "meta_arg_of_pericenter": 112.0181,
        "meta_mean_anomaly": 248.7043,
        "meta_ephemeris_type": 0,
        "meta_classification_type": "U",
        "meta_norad_cat_id": 37428,
        "meta_element_set_no": 999,
        "meta_rev_at_epoch": 63373,
        "meta_bstar": 0.0023264608,
        "meta_mean_motion_dot": 6.657e-05,
        "meta_mean_motion_ddot": 0,
        "tle_line1": "1 37428U 99025EGW 25342.34817742  .00006657  00000+0  23265-2 0  9994",
        "tle_line2": "2 37428  97.7218 205.4682 0056692 112.0181 248.7043 14.34566274633731"
      },
      "geometry": {
        "type": "Point",
        "coordinates": [
          -158.65374155110356,
          31.06729325348134
        ]
      }
    },
    {
      "type": "Feature",
      "properties": {
        "norad_id": 37430,
        "name": "FENGYUN 1C DEB",
        "group": "fengyun-1c-debris",
        "lat": -1.6259848596593431,
        "lon": -123.18237511021232,
        "alt_km": 800.5927680543236,
        "timestamp": "2025-12-08T23:34:04.258824+00:00",
        "meta_object_name": "FENGYUN 1C DEB",
        "meta_object_id": "1999-025EGY",
        "meta_epoch": "2025-12-05T03:58:16.719456",
        "meta_mean_motion": 14.28846273,
        "meta_eccentricity": 0.001883,
        "meta_inclination": 98.7668,
        "meta_ra_of_asc_node": 53.2332,
        "meta_arg_of_pericenter": 93.5332,
        "meta_mean_anomaly": 266.8003,
        "meta_ephemeris_type": 0,
        "meta_classification_type": "U",
        "meta_norad_cat_id": 37430,
        "meta_element_set_no": 999,
        "meta_rev_at_epoch": 61593,
        "meta_bstar": 0.0038447795,
        "meta_mean_motion_dot": 9.683e-05,
        "meta_mean_motion_ddot": 0,
        "tle_line1": "1 37430U 99025EGY 25339.16547129  .00009683  00000+0  38448-2 0  9993",
        "tle_line2": "2 37430  98.7668  53.2332 0018830  93.5332 266.8003 14.28846273615930"
      },
      "geometry": {
        "type": "Point",
        "coordinates": [
          -123.18237511021232,
          -1.6259848596593431
        ]
      }
    },
    {
      "type": "Feature",
      "properties": {
        "norad_id": 37432,
        "name": "FENGYUN 1C DEB",
        "group": "fengyun-1c-debris",
        "lat": -73.0825763478499,
        "lon": 24.576893546180244,
        "alt_km": 596.6399855852478,
        "timestamp": "2025-12-08T23:34:04.258834+00:00",
        "meta_object_name": "FENGYUN 1C DEB",
        "meta_object_id": "1999-025EHA",
        "meta_epoch": "2025-12-05T18:14:41.033760",
        "meta_mean_motion": 14.53339368,
        "meta_eccentricity": 0.01824817,
        "meta_inclination": 98.1839,
        "meta_ra_of_asc_node": 353.19,
        "meta_arg_of_pericenter": 309.6452,
        "meta_mean_anomaly": 48.8764,
        "meta_ephemeris_type": 0,
        "meta_classification_type": "U",
        "meta_norad_cat_id": 37432,
        "meta_element_set_no": 999,
        "meta_rev_at_epoch": 8275,
        "meta_bstar": 0.0017271417,
        "meta_mean_motion_dot": 8.904e-05,
        "meta_mean_motion_ddot": 0,
        "tle_line1": "1 37432U 99025EHA 25339.76019715  .00008904  00000+0  17271-2 0  9992",
        "tle_line2": "2 37432  98.1839 353.1900 0182481 309.6452  48.8764 14.53339368 82757"
      },
      "geometry": {
        "type": "Point",
        "coordinates": [
          24.576893546180244,
          -73.0825763478499
        ]
      }
    }
  ]
}